AOR-E (EGNOS/PRN 120)   
1 24307U 96053A   17278.19467095 -.00000131  00000-0  00000+0 0  9990
2 24307   2.8463  77.1372 0004702 132.4979 219.0142  1.00271340 77164
ARTEMIS (EGNOS/PRN 124) 
1 26863U 01029A   17277.78259837 -.00000368  00000-0  00000-0 0  9998
2 26863  12.8408  31.9350 0002760 210.8424 175.5825  1.00266851 12293
CRE (WAAS/PRN 138)      
1 28868U 05036A   17277.54493694 -.00000084  00000-0  00000+0 0  9996
2 28868   0.0420  43.8144 0001105 104.1522 314.3349  1.00271958 44295
CRW (WAAS/PRN 135)      
1 28884U 05041A   17277.58074623  .00000069  00000-0  00000+0 0  9993
2 28884   0.0240 113.9190 0001156  95.1229 240.4994  1.00272195 43762
IOR-W (EGNOS/PRN 126)   
1 28899U 05044A   17277.82135204  .00000003  00000-0  00000+0 0  9990
2 28899   2.5942  13.3066 0003074 188.1080 171.8872  1.00272546 43647
MTSAT-2 (MSAS/PRN 137)  
1 28937U 06004A   17277.79092931 -.00000252  00000-0  00000-0 0  9993
2 28937   0.0558  77.9101 0003750 117.5086 248.0223  1.00271381 42614
AMR (WAAS/PRN 133)      
1 33278U 08039A   17278.43805189 -.00000147  00000-0  00000+0 0  9998
2 33278   3.0259   2.4653 0003230 198.1183 233.4623  1.00271612 33417
QZS-1 (QZSS/PRN 183)    
1 37158U 10045A   17276.35758448 -.00000165  00000-0  00000-0 0  9994
2 37158  40.9374 157.7191 0751533 269.2992 209.5587  1.00310388 25879
GSAT-8 (GAGAN/PRN 127)  
1 37605U 11022A   17277.61854753  .00000074  00000-0  00000-0 0  9991
2 37605   0.0794  96.6101 0006351 154.4879  40.1595  1.00272621 21355
LUCH 5A (SDCM/PRN 140)  
1 37951U 11074B   17277.72573249 -.00000052  00000-0  00000-0 0  9999
2 37951   1.6042 171.0408 0002497  42.1651 228.7784  1.00275123 21329
SES-5 (EGNOS/PRN 136)   
1 38652U 12036A   17276.88938350  .00000024  00000-0  00000-0 0  9999
2 38652   0.0468 262.7444 0001918 288.0024 147.2150  1.00272441 12639
GSAT-10 (GAGAN/PRN 128) 
1 38779U 12051B   17277.73159403 -.00000176  00000-0  00000-0 0  9994
2 38779   0.0351 109.2737 0000975  63.9216 186.8353  1.00271900 18252
LUCH 5B (SDCM/PRN 125)  
1 38977U 12061A   17277.95605037 -.00000136  00000-0  00000-0 0  9994
2 38977   3.7566  73.7814 0001722 124.4760 143.5286  1.00272588 18314
ASTRA 5B (EGNOS/PRN 123)
1 39617U 14011B   17277.93521529  .00000145  00000-0  00000-0 0  9993
2 39617   0.0583 312.3258 0003935 233.9358 195.7396  1.00273925 12812
LUCH 5V (SDCM/PRN 141)  
1 39727U 14023A   17277.78184368 -.00000282  00000-0  00000-0 0  9990
2 39727   2.4984 298.8860 0001989 291.2633 159.6720  1.00268735530663
GSAT-15 (GAGAN/PRN 139) 
1 41028U 15065A   17276.70540825 -.00000269  00000-0  00000-0 0  9994
2 41028   0.0268 141.2558 0002038  50.9218 167.8453  1.00273527  6969
QZS-2 (QZSS/PRN 184)    
1 42738U 17028A   17277.35760780 -.00000172  00000-0  00000-0 0  9993
2 42738  44.6181 288.0916 0738600 270.9988  80.5446  1.00262423  1289
